[{"OBJECT_NAME":"GSAT0206 (GALILEO 10)","OBJECT_ID":"2015-045B","EPOCH":"2026-03-27T22:07:45.754176","MEAN_MOTION":1.70473776,"ECCENTRICITY":0.0003014,"INCLINATION":54.972,"RA_OF_ASC_NODE":223.8461,"ARG_OF_PERICENTER":48.8202,"MEAN_ANOMALY":311.153,"EPHEMERIS_TYPE":0,"CLASSIFICATION_TYPE":"U","NORAD_CAT_ID":40890,"ELEMENT_SET_NO":999,"REV_AT_EPOCH":6565,"BSTAR":0,"MEAN_MOTION_DOT":-1.6e-7,"MEAN_MOTION_DDOT":0},{"OBJECT_NAME":"GPS BIIF-11 (PRN 10)","OBJECT_ID":"2015-062A","EPOCH":"2026-03-27T12:15:19.111968","MEAN_MOTION":2.00566923,"ECCENTRICITY":0.01113167,"INCLINATION":56.9083,"RA_OF_ASC_NODE":33.9579,"ARG_OF_PERICENTER":231.5995,"MEAN_ANOMALY":127.3861,"EPHEMERIS_TYPE":0,"CLASSIFICATION_TYPE":"U","NORAD_CAT_ID":41019,"ELEMENT_SET_NO":999,"REV_AT_EPOCH":7619,"BSTAR":0,"MEAN_MOTION_DOT":-7.0e-7,"MEAN_MOTION_DDOT":0},{"OBJECT_NAME":"GSAT-15 (GAGAN/PRN 139)","OBJECT_ID":"2015-065A","EPOCH":"2026-03-28T22:04:31.152864","MEAN_MOTION":1.00271779,"ECCENTRICITY":0.00021345,"INCLINATION":0.0253,"RA_OF_ASC_NODE":257.003,"ARG_OF_PERICENTER":139.3569,"MEAN_ANOMALY":214.5915,"EPHEMERIS_TYPE":0,"CLASSIFICATION_TYPE":"U","NORAD_CAT_ID":41028,"ELEMENT_SET_NO":999,"REV_AT_EPOCH":3799,"BSTAR":0,"MEAN_MOTION_DOT":-2.77e-6,"MEAN_MOTION_DDOT":0},{"OBJECT_NAME":"GSAT0209 (GALILEO 12)","OBJECT_ID":"2015-079A","EPOCH":"2026-03-28T02:09:49.627872","MEAN_MOTION":1.70474268,"ECCENTRICITY":0.00053639,"INCLINATION":55.7756,"RA_OF_ASC_NODE":103.4845,"ARG_OF_PERICENTER":324.7749,"MEAN_ANOMALY":35.2418,"EPHEMERIS_TYPE":0,"CLASSIFICATION_TYPE":"U","NORAD_CAT_ID":41174,"ELEMENT_SET_NO":999,"REV_AT_EPOCH":6339,"BSTAR":0,"MEAN_MOTION_DOT":4.1e-7,"MEAN_MOTION_DDOT":0},{"OBJECT_NAME":"GSAT0208 (GALILEO 11)","OBJECT_ID":"2015-079B","EPOCH":"2026-03-28T07:26:58.508160","MEAN_MOTION":1.70474153,"ECCENTRICITY":0.00048623,"INCLINATION":55.7736,"RA_OF_ASC_NODE":103.4753,"ARG_OF_PERICENTER":326.1206,"MEAN_ANOMALY":33.901,"EPHEMERIS_TYPE":0,"CLASSIFICATION_TYPE":"U","NORAD_CAT_ID":41175,"ELEMENT_SET_NO":999,"REV_AT_EPOCH":6381,"BSTAR":0,"MEAN_MOTION_DOT":4.2e-7,"MEAN_MOTION_DDOT":0},{"OBJECT_NAME":"IRNSS-1E","OBJECT_ID":"2016-003A","EPOCH":"2026-03-28T20:26:55.512096","MEAN_MOTION":1.00274691,"ECCENTRICITY":0.00171002,"INCLINATION":33.0629,"RA_OF_ASC_NODE":60.9056,"ARG_OF_PERICENTER":186.6338,"MEAN_ANOMALY":357.2752,"EPHEMERIS_TYPE":0,"CLASSIFICATION_TYPE":"U","NORAD_CAT_ID":41241,"ELEMENT_SET_NO":999,"REV_AT_EPOCH":3727,"BSTAR":0,"MEAN_MOTION_DOT":-2.93e-6,"MEAN_MOTION_DDOT":0},{"OBJECT_NAME":"GPS BIIF-12 (PRN 32)","OBJECT_ID":"2016-007A","EPOCH":"2026-03-28T14:15:38.743488","MEAN_MOTION":2.005555,"ECCENTRICITY":0.00958858,"INCLINATION":55.4724,"RA_OF_ASC_NODE":92.6531,"ARG_OF_PERICENTER":246.602,"MEAN_ANOMALY":112.4215,"EPHEMERIS_TYPE":0,"CLASSIFICATION_TYPE":"U","NORAD_CAT_ID":41328,"ELEMENT_SET_NO":999,"REV_AT_EPOCH":7422,"BSTAR":0,"MEAN_MOTION_DOT":4.3e-7,"MEAN_MOTION_DDOT":0},{"OBJECT_NAME":"COSMOS 2514 (751)","OBJECT_ID":"2016-008A","EPOCH":"2026-03-28T02:28:40.623744","MEAN_MOTION":2.13102591,"ECCENTRICITY":0.0009016,"INCLINATION":65.0686,"RA_OF_ASC_NODE":315.7909,"ARG_OF_PERICENTER":203.3662,"MEAN_ANOMALY":156.6472,"EPHEMERIS_TYPE":0,"CLASSIFICATION_TYPE":"U","NORAD_CAT_ID":41330,"ELEMENT_SET_NO":999,"REV_AT_EPOCH":7889,"BSTAR":0,"MEAN_MOTION_DOT":-2.5e-7,"MEAN_MOTION_DDOT":0},{"OBJECT_NAME":"IRNSS-1F","OBJECT_ID":"2016-015A","EPOCH":"2026-03-28T18:21:37.238112","MEAN_MOTION":1.00271387,"ECCENTRICITY":0.00181199,"INCLINATION":5.1456,"RA_OF_ASC_NODE":98.6598,"ARG_OF_PERICENTER":187.6737,"MEAN_ANOMALY":207.6694,"EPHEMERIS_TYPE":0,"CLASSIFICATION_TYPE":"U","NORAD_CAT_ID":41384,"ELEMENT_SET_NO":999,"REV_AT_EPOCH":3686,"BSTAR":0,"MEAN_MOTION_DOT":1.42e-6,"MEAN_MOTION_DDOT":0},{"OBJECT_NAME":"BEIDOU-2 IGSO-6 (C13)","OBJECT_ID":"2016-021A","EPOCH":"2026-03-24T21:08:57.365664","MEAN_MOTION":1.00273949,"ECCENTRICITY":0.00588989,"INCLINATION":60.1156,"RA_OF_ASC_NODE":38.8764,"ARG_OF_PERICENTER":233.5118,"MEAN_ANOMALY":322.9213,"EPHEMERIS_TYPE":0,"CLASSIFICATION_TYPE":"U","NORAD_CAT_ID":41434,"ELEMENT_SET_NO":999,"REV_AT_EPOCH":3663,"BSTAR":0,"MEAN_MOTION_DOT":-1.54e-6,"MEAN_MOTION_DDOT":0},{"OBJECT_NAME":"IRNSS-1G","OBJECT_ID":"2016-027A","EPOCH":"2026-03-28T22:14:43.050624","MEAN_MOTION":1.00273782,"ECCENTRICITY":0.00056908,"INCLINATION":4.9966,"RA_OF_ASC_NODE":99.3899,"ARG_OF_PERICENTER":330.0067,"MEAN_ANOMALY":220.1363,"EPHEMERIS_TYPE":0,"CLASSIFICATION_TYPE":"U","NORAD_CAT_ID":41469,"ELEMENT_SET_NO":999,"REV_AT_EPOCH":3637,"BSTAR":0,"MEAN_MOTION_DOT":-3.5e-6,"MEAN_MOTION_DDOT":0},{"OBJECT_NAME":"GSAT0211 (GALILEO 14)","OBJECT_ID":"2016-030A","EPOCH":"2026-03-27T20:20:51.135648","MEAN_MOTION":1.70473902,"ECCENTRICITY":0.00030274,"INCLINATION":55.1222,"RA_OF_ASC_NODE":223.9297,"ARG_OF_PERICENTER":18.1834,"MEAN_ANOMALY":341.7749,"EPHEMERIS_TYPE":0,"CLASSIFICATION_TYPE":"U","NORAD_CAT_ID":41549,"ELEMENT_SET_NO":999,"REV_AT_EPOCH":6128,"BSTAR":0,"MEAN_MOTION_DOT":-1.5e-7,"MEAN_MOTION_DDOT":0},{"OBJECT_NAME":"GSAT0210 (GALILEO 13)","OBJECT_ID":"2016-030B","EPOCH":"2026-03-27T12:26:38.685120","MEAN_MOTION":1.70473922,"ECCENTRICITY":0.00018137,"INCLINATION":55.1217,"RA_OF_ASC_NODE":223.9368,"ARG_OF_PERICENTER":210.8159,"MEAN_ANOMALY":149.1228,"EPHEMERIS_TYPE":0,"CLASSIFICATION_TYPE":"U","NORAD_CAT_ID":41550,"ELEMENT_SET_NO":999,"REV_AT_EPOCH":6127,"BSTAR":0,"MEAN_MOTION_DOT":-1.2e-7,"MEAN_MOTION_DDOT":0},{"OBJECT_NAME":"BEIDOU-2 G7 (C03)","OBJECT_ID":"2016-037A","EPOCH":"2026-03-28T22:09:23.185728","MEAN_MOTION":1.00266672,"ECCENTRICITY":0.00076907,"INCLINATION":1.5222,"RA_OF_ASC_NODE":68.4739,"ARG_OF_PERICENTER":347.5023,"MEAN_ANOMALY":213.1885,"EPHEMERIS_TYPE":0,"CLASSIFICATION_TYPE":"U","NORAD_CAT_ID":41586,"ELEMENT_SET_NO":999,"REV_AT_EPOCH":608,"BSTAR":0,"MEAN_MOTION_DOT":-3.71e-6,"MEAN_MOTION_DDOT":0},{"OBJECT_NAME":"EUTELSAT 117 WEST B (WAAS/PRN 131)","OBJECT_ID":"2016-038B","EPOCH":"2026-03-28T15:56:28.656384","MEAN_MOTION":1.00272302,"ECCENTRICITY":1.623e-5,"INCLINATION":0.0184,"RA_OF_ASC_NODE":34.9208,"ARG_OF_PERICENTER":69.1624,"MEAN_ANOMALY":204.1196,"EPHEMERIS_TYPE":0,"CLASSIFICATION_TYPE":"U","NORAD_CAT_ID":41589,"ELEMENT_SET_NO":999,"REV_AT_EPOCH":3585,"BSTAR":0,"MEAN_MOTION_DOT":-3.1e-7,"MEAN_MOTION_DDOT":0},{"OBJECT_NAME":"GSAT0207 (GALILEO 15)","OBJECT_ID":"2016-069A","EPOCH":"2026-03-27T19:07:26.359968","MEAN_MOTION":1.70474198,"ECCENTRICITY":0.0005689,"INCLINATION":55.446,"RA_OF_ASC_NODE":103.3365,"ARG_OF_PERICENTER":312.3228,"MEAN_ANOMALY":47.6802,"EPHEMERIS_TYPE":0,"CLASSIFICATION_TYPE":"U","NORAD_CAT_ID":41859,"ELEMENT_SET_NO":999,"REV_AT_EPOCH":5801,"BSTAR":0,"MEAN_MOTION_DOT":3.9e-7,"MEAN_MOTION_DDOT":0},{"OBJECT_NAME":"GSAT0212 (GALILEO 16)","OBJECT_ID":"2016-069B","EPOCH":"2026-03-28T19:45:52.580736","MEAN_MOTION":1.70474393,"ECCENTRICITY":0.00042783,"INCLINATION":55.4444,"RA_OF_ASC_NODE":103.3032,"ARG_OF_PERICENTER":336.2015,"MEAN_ANOMALY":23.8319,"EPHEMERIS_TYPE":0,"CLASSIFICATION_TYPE":"U","NORAD_CAT_ID":41860,"ELEMENT_SET_NO":999,"REV_AT_EPOCH":5828,"BSTAR":0,"MEAN_MOTION_DOT":4.2e-7,"MEAN_MOTION_DDOT":0}]
