GSAT0206 (GALILEO 10)   
1 40890U 15045B   26086.92205734 -.00000016  00000+0  00000+0 0  9996
2 40890  54.9720 223.8461 0003014  48.8202 311.1530  1.70473776 65656
NAVSTAR 75 (USA 265)    
1 41019U 15062A   26086.51063787 -.00000070  00000+0  00000+0 0  9994
2 41019  56.9083  33.9579 0111316 231.5995 127.3861  2.00566923 76195
GSAT-15                 
1 41028U 15065A   26087.91980501 -.00000277  00000+0  00000+0 0  9993
2 41028   0.0253 257.0030 0002134 139.3569 214.5915  1.00271779 37999
GSAT0209 (GALILEO 12)   
1 41174U 15079A   26087.09015773  .00000041  00000+0  00000+0 0  9997
2 41174  55.7756 103.4845 0005363 324.7749  35.2418  1.70474268 63395
GSAT0208 (GALILEO 11)   
1 41175U 15079B   26087.31039940  .00000042  00000+0  00000+0 0  9996
2 41175  55.7736 103.4753 0004862 326.1206  33.9010  1.70474153 63812
IRNSS-1E                
1 41241U 16003A   26087.85203139 -.00000293  00000+0  00000+0 0  9999
2 41241  33.0629  60.9056 0017100 186.6338 357.2752  1.00274691 37277
NAVSTAR 76 (USA 266)    
1 41328U 16007A   26087.59419842  .00000043  00000+0  00000+0 0  9992
2 41328  55.4724  92.6531 0095885 246.6020 112.4215  2.00555500 74221
COSMOS 2514 [GLONASS-M] 
1 41330U 16008A   26087.10324796 -.00000025  00000+0  00000+0 0  9997
2 41330  65.0686 315.7909 0009016 203.3662 156.6472  2.13102591 78893
IRNSS-1F                
1 41384U 16015A   26087.76501433  .00000142  00000+0  00000+0 0  9990
2 41384   5.1456  98.6598 0018119 187.6737 207.6694  1.00271387 36863
BEIDOU-2 IGSO-6         
1 41434U 16021A   26083.88121951 -.00000154  00000+0  00000+0 0  9999
2 41434  60.1156  38.8764 0058898 233.5118 322.9213  1.00273949 36639
IRNSS-1G                
1 41469U 16027A   26087.92688716 -.00000350  00000+0  00000+0 0  9997
2 41469   4.9966  99.3899 0005690 330.0067 220.1363  1.00273782 36372
GSAT0211 (GALILEO 14)   
1 41549U 16030A   26086.84781407 -.00000015  00000+0  00000+0 0  9999
2 41549  55.1222 223.9297 0003027  18.1834 341.7749  1.70473902 61288
GSAT0210 (GALILEO 13)   
1 41550U 16030B   26086.51850330 -.00000012  00000+0  00000+0 0  9994
2 41550  55.1217 223.9368 0001813 210.8159 149.1228  1.70473922 61278
BEIDOU-2 G7             
1 41586U 16037A   26087.92318502 -.00000371  00000+0  00000+0 0  9994
2 41586   1.5222  68.4739 0007690 347.5023 213.1885  1.00266672  6083
EUTELSAT 117 WEST B     
1 41589U 16038B   26087.66422056 -.00000031  00000+0  00000+0 0  9992
2 41589   0.0184  34.9208 0000162  69.1624 204.1196  1.00272302 35856
GSAT0207 (GALILEO 15)   
1 41859U 16069A   26086.79683287  .00000039  00000+0  00000+0 0  9991
2 41859  55.4460 103.3365 0005689 312.3228  47.6802  1.70474198 58015
GSAT0212 (GALILEO 16)   
1 41860U 16069B   26087.82352524  .00000042  00000+0  00000+0 0  9999
2 41860  55.4444 103.3032 0004278 336.2015  23.8319  1.70474393 58287
